OBJECT_NAME,OBJECT_ID,EPOCH,MEAN_MOTION,ECCENTRICITY,INCLINATION,RA_OF_ASC_NODE,ARG_OF_PERICENTER,MEAN_ANOMALY,EPHEMERIS_TYPE,CLASSIFICATION_TYPE,NORAD_CAT_ID,ELEMENT_SET_NO,REV_AT_EPOCH,BSTAR,MEAN_MOTION_DOT,MEAN_MOTION_DDOT
FLOCK 4BE-18,2024-149N,2026-06-13T18:30:06.477984,15.41755866,.0002619,97.3736,248.4647,251.6395,108.4568,0,U,60480,999,10178,.41397E-3,.17435E-3,0
FLOCK 4BE-7,2024-149P,2026-06-13T18:35:56.626944,15.40186965,.0001814,97.3767,247.8144,251.9096,108.1953,0,U,60481,999,10172,.55434E-3,.22206E-3,0
TOMORROW-S2,2024-149T,2026-06-13T20:05:46.627872,15.32705571,.0001271,97.3825,245.8056,289.7480,70.3625,0,U,60485,999,10157,.2633E-3,.8239E-4,0
FLOCK 4BE-36,2024-149U,2026-06-13T05:24:31.917024,15.42608156,.0002223,97.3751,248.6059,275.0966,85.0028,0,U,60486,999,10174,.39726E-3,.1721E-3,0
FLOCK 4BE-25,2024-149V,2026-06-13T20:04:25.398048,15.38758694,.0001042,97.3806,247.9636,237.5003,122.6141,0,U,60487,999,10172,.37427E-3,.14266E-3,0
FLOCK 4BE-31,2024-149W,2026-06-13T18:40:43.567392,15.43971657,.0001196,97.3805,250.0137,265.2311,94.8801,0,U,60488,999,10185,.48324E-3,.21949E-3,0
FLOCK 4BE-20,2024-149X,2026-06-13T17:35:39.717312,15.37973969,.0002285,97.3705,246.7478,267.9384,92.1600,0,U,60489,999,10168,.36261E-3,.13469E-3,0
FLOCK 4BE-23,2024-149Y,2026-06-13T18:54:04.862592,15.37593216,.0001901,97.3790,247.1770,278.8483,81.2547,0,U,60490,999,10167,.35983E-3,.13201E-3,0
FLOCK 4BE-15,2024-149Z,2026-06-13T18:00:17.903808,15.59167986,.0002602,97.3690,250.0034,246.9331,113.1651,0,U,60491,999,10189,.11391E-2,.89898E-3,0
FLOCK 4BE-17,2024-149AA,2026-06-13T18:37:58.908000,15.39692374,.0001828,97.3780,248.1186,253.9710,106.1334,0,U,60492,999,10173,.39027E-3,.15343E-3,0
NUSAT-50 (NANCY ROMAN),2024-149AB,2026-06-13T19:58:54.037632,15.29803254,.0003136,97.3795,246.1114,184.4704,175.6509,0,U,60493,999,10161,.34595E-3,.9914E-4,0
FLOCK 4BE-34,2024-149AD,2026-06-13T18:40:29.472096,15.41066897,.0002052,97.3789,249.1271,288.6169,71.4854,0,U,60495,999,10180,.37737E-3,.15522E-3,0
FLOCK 4BE-32,2024-149AF,2026-06-13T16:24:58.837248,15.42053171,.000225,97.3729,248.5732,278.2639,81.8353,0,U,60497,999,10179,.43301E-3,.18424E-3,0
FLOCK 4BE-30,2024-149AH,2026-06-13T18:49:46.104096,15.55743761,.0003821,97.3786,250.1904,238.1946,121.8937,0,U,60499,999,10124,.19865E-2,.138963E-2,0
NUSAT-49 (KLARA DAN VON NEUMANN),2024-149AJ,2026-06-13T17:37:02.358048,15.29893414,.0001271,97.3789,246.0454,359.3411,0.7827,0,U,60500,999,10160,.31176E-3,.895E-4,0
FLOCK 4BE-11,2024-149AK,2026-06-13T17:53:16.600128,15.42879523,.0002433,97.3709,248.8620,277.5738,82.5233,0,U,60501,999,10182,.39481E-3,.1726E-3,0
YAM-7,2024-149AN,2026-06-13T18:59:07.012896,15.31776552,.0002149,97.3790,245.0541,327.7597,32.3513,0,U,60504,999,10153,.24799E-3,.7532E-4,0
FLOCK 4BE-24,2024-149AP,2026-06-13T19:07:36.693408,15.42956184,.0002632,97.3726,249.1686,292.5483,67.5486,0,U,60505,999,10184,.4491E-3,.19702E-3,0
LUR-1,2024-149AQ,2026-06-13T18:39:43.171200,15.30065429,.0003038,97.3745,243.6301,336.8475,23.2629,0,U,60506,999,10145,.25148E-3,.7243E-4,0
TANAGER-1,2024-149AR,2026-06-13T05:00:13.784832,15.44929437,.00032844,97.2655,258.4614,320.6725,39.4285,0,U,60507,999,10242,.63591827E-4,.2902E-4,0
EAGLEEYE,2024-149AS,2026-06-13T19:02:39.820416,15.70332997,.0003941,97.3733,257.9447,246.8603,113.2245,0,U,60508,999,10240,.82589E-3,.101425E-2,0
TRANSPORTER-11 OBJECT AU,2024-149AU,2026-06-13T17:52:04.022400,15.40135329,.000233,97.3738,248.4372,310.1103,49.9939,0,U,60510,999,10178,.3721E-3,.14839E-3,0
FLOCK 4BE-2,2024-149AV,2026-06-13T18:31:48.448128,15.52363104,.0003064,97.3840,251.9695,269.2329,90.8572,0,U,60511,999,10197,.94731E-3,.57979E-3,0
FLOCK 4BE-13,2024-149AW,2026-06-13T18:44:52.471104,15.41805841,.0002775,97.3727,249.1570,277.4795,82.6137,0,U,60512,999,10184,.34655E-3,.14601E-3,0
