FLOCK 4BE-18            
1 60480U 24149N   26164.77090832  .00017435  00000+0  41397-3 0  9999
2 60480  97.3736 248.4647 0002619 251.6395 108.4568 15.41755866101786
FLOCK 4BE-7             
1 60481U 24149P   26164.77496097  .00022206  00000+0  55434-3 0  9992
2 60481  97.3767 247.8144 0001813 251.9096 108.1953 15.40186965101728
TOMORROW-S2             
1 60485U 24149T   26164.83734524  .00008239  00000+0  26330-3 0  9996
2 60485  97.3825 245.8056 0001270 289.7480  70.3625 15.32705571101570
FLOCK 4BE-36            
1 60486U 24149U   26164.22536941  .00017210  00000+0  39726-3 0  9995
2 60486  97.3751 248.6059 0002223 275.0966  85.0028 15.42608156101740
FLOCK 4BE-25            
1 60487U 24149V   26164.83640507  .00014266  00000+0  37427-3 0  9991
2 60487  97.3806 247.9636 0001041 237.5003 122.6141 15.38758694101727
FLOCK 4BE-31            
1 60488U 24149W   26164.77828203  .00021949  00000+0  48324-3 0  9990
2 60488  97.3805 250.0137 0001195 265.2311  94.8801 15.43971657101857
FLOCK 4BE-20            
1 60489U 24149X   26164.73309858  .00013469  00000+0  36261-3 0  9992
2 60489  97.3705 246.7478 0002284 267.9384  92.1600 15.37973969101686
FLOCK 4BE-23            
1 60490U 24149Y   26164.78755629  .00013201  00000+0  35983-3 0  9994
2 60490  97.3790 247.1770 0001900 278.8483  81.2547 15.37593216101678
FLOCK 4BE-15            
1 60491U 24149Z   26164.75020723  .00089898  00000+0  11391-2 0  9993
2 60491  97.3690 250.0034 0002602 246.9331 113.1651 15.59167986101892
FLOCK 4BE-17            
1 60492U 24149AA  26164.77637625  .00015343  00000+0  39027-3 0  9992
2 60492  97.3780 248.1186 0001827 253.9710 106.1334 15.39692374101731
NUSAT-50 (NANCY ROMAN)  
1 60493U 24149AB  26164.83256989  .00009914  00000+0  34595-3 0  9992
2 60493  97.3795 246.1114 0003136 184.4704 175.6509 15.29803254101615
FLOCK 4BE-34            
1 60495U 24149AD  26164.77811890  .00015522  00000+0  37737-3 0  9998
2 60495  97.3789 249.1271 0002051 288.6169  71.4854 15.41066897101809
FLOCK 4BE-32            
1 60497U 24149AF  26164.68401432  .00018424  00000+0  43301-3 0  9995
2 60497  97.3729 248.5732 0002250 278.2639  81.8353 15.42053171101797
FLOCK 4BE-30            
1 60499U 24149AH  26164.78456140  .00138963  00000+0  19865-2 0  9992
2 60499  97.3786 250.1904 0003821 238.1946 121.8937 15.55743761101241
NUSAT-49 (KLARA DAN VO*)
1 60500U 24149AJ  26164.73405508  .00008950  00000+0  31176-3 0  9994
2 60500  97.3789 246.0454 0001270 359.3411   0.7827 15.29893414101605
FLOCK 4BE-11            
1 60501U 24149AK  26164.74533102  .00017260  00000+0  39481-3 0  9999
2 60501  97.3709 248.8620 0002432 277.5738  82.5233 15.42879523101820
YAM-7                   
1 60504U 24149AN  26164.79105340  .00007532  00000+0  24799-3 0  9993
2 60504  97.3790 245.0541 0002148 327.7597  32.3513 15.31776552101537
FLOCK 4BE-24            
1 60505U 24149AP  26164.79695247  .00019702  00000+0  44910-3 0  9993
2 60505  97.3726 249.1686 0002631 292.5483  67.5486 15.42956184101848
LUR-1                   
1 60506U 24149AQ  26164.77758300  .00007243  00000+0  25148-3 0  9991
2 60506  97.3745 243.6301 0003038 336.8475  23.2629 15.30065429101453
TANAGER-1               
1 60507U 24149AR  26164.20849288  .00002902  00000+0  63592-4 0  9999
2 60507  97.2655 258.4614 0003284 320.6725  39.4285 15.44929437102424
EAGLEEYE                
1 60508U 24149AS  26164.79351644  .00101425  00000+0  82589-3 0  9994
2 60508  97.3733 257.9447 0003941 246.8603 113.2245 15.70332997102408
TRANSPORTER-11 OBJECT AU
1 60510U 24149AU  26164.74449100  .00014839  00000+0  37210-3 0  9990
2 60510  97.3738 248.4372 0002330 310.1103  49.9939 15.40135329101781
FLOCK 4BE-2             
1 60511U 24149AV  26164.77208852  .00057979  00000+0  94731-3 0  9994
2 60511  97.3840 251.9695 0003064 269.2329  90.8572 15.52363104101978
FLOCK 4BE-13            
1 60512U 24149AW  26164.78116286  .00014601  00000+0  34655-3 0  9999
2 60512  97.3727 249.1570 0002775 277.4795  82.6137 15.41805841101849
